     3.02           N: GNSS NAV DATA    C: BEIDOU           RINEX VERSION / TYPE
Spider V7.1.1.7438  ICGC                20180613 001725 UTC PGM / RUN BY / DATE
THIS RINEX FILE IS CREATED FROM LB2 DATA                    COMMENT
     4     4   573     6                                    LEAP SECONDS
                                                            END OF HEADER
C10 2018 06 12 02 00 00-3.026695922017D-04-2.914823937772D-11 0.000000000000D+00
     1.000000000000D+00 7.298437500000D+02 1.730786403087D-09-2.220836117984D+00
     2.375850453973D-05 5.458471481688D-03-1.072650775313D-05 6.492971040726D+03
     1.800000000000D+05-3.115274012089D-07 8.415711001629D-01-2.253800630569D-07
     9.201128077631D-01 5.643593750000D+02-2.726270894069D+00-3.019768657353D-09
     6.082396253326D-10                    6.490000000000D+02                   
     2.000000000000D+00 0.000000000000D+00 6.100000060627D-09 3.000000026177D-09
     1.800000000000D+05 0.000000000000D+00                                      
C21 2018 06 12 02 00 00 2.123783342540D-04-1.550759520796D-12 0.000000000000D+00
     2.000000000000D+00-1.367187500000D+01 4.520188223722D-09-1.908984141858D+00
    -7.422640919685D-07 9.275984484702D-04 4.443340003490D-06 5.282606140137D+03
     1.800000000000D+05-2.468004822731D-08-1.696061733128D+00 6.519258022308D-09
     9.592901196554D-01 2.693906250000D+02-1.173191590699D+00-7.069937524307D-09
    -1.953652795095D-10                    6.490000000000D+02                   
     2.000000000000D+00 1.000000000000D+00 1.130000004679D-08 1.130000004679D-08
     1.800000000000D+05 2.000000000000D+00                                      
C27 2018 06 12 02 00 00 4.075797041878D-04 7.379874489288D-12 0.000000000000D+00
     3.000000000000D+00-1.267968750000D+02 3.556933858562D-09 1.476534508206D+00
    -6.361398845911D-06 6.218443159014D-04 1.078099012375D-05 5.282618253708D+03
     1.800000000000D+05 1.862645149231D-09 2.523756840260D+00 1.629814505577D-08
     9.614832810894D-01 1.399062500000D+02 6.758302513398D-01-6.678492425749D-09
    -2.500104073419D-12                    6.490000000000D+02                   
     2.000000000000D+00 1.000000000000D+00 4.499999928242D-09 4.499999928242D-09
     1.800000000000D+05 3.000000000000D+00                                      
C07 2018 06 12 02 00 00 1.122319372371D-04-1.554045780949D-11 0.000000000000D+00
     1.000000000000D+00 7.029687500000D+02 1.825075979234D-09-1.672787288728D+00
     2.274010330439D-05 6.424475344829D-03-1.286109909415D-05 6.493233743668D+03
     1.800000000000D+05-3.571622073650D-07 8.501938187394D-01-4.344619810581D-07
     9.188413125145D-01 6.294375000000D+02-2.805757256149D+00-3.045841134863D-09
     5.628805754831D-10                    6.490000000000D+02                   
     2.000000000000D+00 0.000000000000D+00 1.440000030328D-08 8.000000106811D-10
     1.800000000000D+05 0.000000000000D+00                                      
C05 2018 06 12 02 00 00 3.711772151291D-04-2.320454939309D-11 0.000000000000D+00
     1.000000000000D+00 9.537812500000D+02 6.569559563019D-09-4.581686009956D-01
     3.106566146016D-05 3.314840141684D-04 1.289928331971D-05 6.493336885452D+03
     1.800000000000D+05 2.123415470123D-07-2.760557313870D+00-1.844018697739D-07
     1.052459853806D-01-4.044687500000D+02-1.478869976459D+00-5.768811650597D-09
     6.743138269982D-10                    6.490000000000D+02                   
     2.000000000000D+00 0.000000000000D+00-9.999999717181D-10-9.299999881307D-09
     1.800004000000D+05 0.000000000000D+00                                      
C18 2018 06 12 03 00 00 6.978828459978D-04-1.360689338981D-12 0.000000000000D+00
     1.000000000000D+00 9.618281250000D+02 1.389700798882D-09-1.150219279844D+00
     3.124494105577D-05 5.187898757868D-03 1.024454832077D-07 6.493708755493D+03
     1.836000000000D+05-1.676380634308D-08 5.980824357341D-01-4.176981747150D-07
     9.377214523653D-01 2.398906250000D+02 3.029540814890D+00-2.639752860745D-09
     6.507414052059D-10                    6.490000000000D+02                   
     2.000000000000D+00 1.000000000000D+00-2.990000069758D-08 0.000000000000D+00
     1.836000000000D+05 1.000000000000D+00                                      
C10 2018 06 12 03 00 00-3.027744824067D-04-2.914379848562D-11 0.000000000000D+00
     1.000000000000D+00 7.397187500000D+02 1.803289406688D-09-1.958907224874D+00
     2.406397834420D-05 5.459515959956D-03-1.190276816487D-05 6.492962232590D+03
     1.836000000000D+05-2.277083694935D-07 8.415612240029D-01-4.246830940247D-07
     9.201150591940D-01 6.033125000000D+02-2.725627154523D+00-3.034769324728D-09
     5.221645893450D-10                    6.490000000000D+02                   
     2.000000000000D+00 0.000000000000D+00 6.100000060627D-09 3.000000026177D-09
     1.836000000000D+05 0.000000000000D+00                                      
C14 2018 06 12 03 00 00 3.266745479777D-04 5.581313189396D-11 0.000000000000D+00
     1.600000000000D+01-1.121875000000D+01 4.629478578266D-09-1.285161132943D+00
    -5.131587386131D-07 2.145869773813D-03 4.287343472242D-06 5.282593046188D+03
     1.836000000000D+05-4.190951585770D-09-1.695639559840D+00 2.468004822731D-08
     9.572832228030D-01 2.725625000000D+02-2.059923390363D+00-7.119939304800D-09
    -1.271481531173D-10                    6.490000000000D+02                   
     2.000000000000D+00 0.000000000000D+00 6.400000085449D-09 1.500000013088D-09
     1.836000000000D+05 0.000000000000D+00                                      
C05 2018 06 12 03 00 00 3.710939781740D-04-2.316369318578D-11 0.000000000000D+00
     1.000000000000D+00 1.034875000000D+03 8.224271041968D-09-1.955037913348D-01
     3.358721733093D-05 3.310068277642D-04-1.573935151100D-06 6.493335737228D+03
     1.836000000000D+05 1.150183379650D-07-2.542792086000D+00-1.937150955200D-07
     1.006710675026D-01 4.128125000000D+01-1.696931181915D+00-7.421023351384D-09
     5.671664804474D-10                    6.490000000000D+02                   
     2.000000000000D+00 0.000000000000D+00-9.999999717181D-10-9.299999881307D-09
     1.836004000000D+05 0.000000000000D+00                                      
C14 2018 06 12 04 00 00 3.268754808232D-04 5.581313189396D-11 0.000000000000D+00
     1.700000000000D+01-1.303125000000D+01 4.630550165530D-09-7.977701727756D-01
    -6.449408829212D-07 2.145504578948D-03 4.525296390057D-06 5.282591966629D+03
     1.872000000000D+05-1.257285475731D-08-1.695665215034D+00 1.443549990654D-08
     9.572827093187D-01 2.691562500000D+02-2.059735564848D+00-7.131368384705D-09
    -1.242908970189D-10                    6.490000000000D+02                   
     2.000000000000D+00 0.000000000000D+00 6.400000085449D-09 1.500000013088D-09
     1.872000000000D+05 1.000000000000D+00                                      
C18 2018 06 12 04 00 00 6.978780729696D-04-1.398881011028D-12 0.000000000000D+00
     1.000000000000D+00 9.627031250000D+02 1.417559070127D-09-8.877588237470D-01
     3.123423084617D-05 5.187858594581D-03 7.078051567078D-08 6.493708494186D+03
     1.872000000000D+05 7.962808012962D-08 5.980734665834D-01-3.655441105366D-07
     9.377236189469D-01 2.413281250000D+02 3.029563137556D+00-2.675468513402D-09
     6.157399590201D-10                    6.490000000000D+02                   
     2.000000000000D+00 1.000000000000D+00-2.990000069758D-08 0.000000000000D+00
     1.872000000000D+05 1.000000000000D+00                                      
C10 2018 06 12 04 00 00-3.028796054423D-04-2.916333841085D-11 0.000000000000D+00
     1.000000000000D+00 7.411718750000D+02 1.791503168036D-09-1.696384610851D+00
     2.409890294075D-05 5.459584994242D-03-1.198519021273D-05 6.492961549759D+03
     1.872000000000D+05-3.697350621223D-07 8.415495806379D-01-3.860332071781D-07
     9.201169975605D-01 6.066093750000D+02-2.725574210055D+00-3.002982307265D-09
     5.757382903759D-10                    6.490000000000D+02                   
     2.000000000000D+00 0.000000000000D+00 6.100000060627D-09 3.000000026177D-09
     1.872000000000D+05 0.000000000000D+00                                      
C05 2018 06 12 04 00 00 3.710107412189D-04-2.314681779580D-11 0.000000000000D+00
     1.000000000000D+00 8.935625000000D+02 9.919341792397D-09 7.001883903427D-02
     2.894178032875D-05 3.259093500674D-04-1.776078715920D-05 6.493323215485D+03
     1.872000000000D+05-4.656612873077D-09-2.315835664217D+00-1.732259988785D-07
     9.519381882751D-02 5.445000000000D+02-1.926975301502D+00-9.029661462989D-09
     4.075169646178D-10                    6.490000000000D+02                   
     2.000000000000D+00 0.000000000000D+00-9.999999717181D-10-9.299999881307D-09
     1.872004000000D+05 0.000000000000D+00                                      
C12 2018 06 12 04 00 00 4.747308557853D-04 1.419397932523D-11 0.000000000000D+00
     1.900000000000D+01-1.748593750000D+02 2.964052114862D-09 2.394928776362D+00
    -8.395407348871D-06 2.286198432557D-03 1.145713031292D-05 5.282616064072D+03
     1.872000000000D+05 1.066364347935D-07 2.500267405419D+00-3.026798367500D-08
     9.844085342582D-01 1.387500000000D+02-2.409534218383D+00-6.380623140956D-09
    -5.357365939762D-11                    6.490000000000D+02                   
     2.000000000000D+00 0.000000000000D+00 2.599999993080D-09-2.999999970665D-10
     1.883700000000D+05 0.000000000000D+00                                      
